{
  "type": "FeatureCollection",
  "features": [
    {
      "type": "Feature",
      "properties": {
        "nome": "Acre",
        "sigla": "AC",
        "regiao": "Norte",
        "populacao": 906876
      },
      "geometry": {
        "type": "Polygon",
        "coordinates": [[
          [-73.99, -4.84], [-70.81, -4.85], [-70.81, -9.98], [-73.99, -9.98], [-73.99, -4.84]
        ]]
      }
    },
    {
      "type": "Feature",
      "properties": {
        "nome": "Alagoas",
        "sigla": "AL",
        "regiao": "Nordeste",
        "populacao": 3127511
      },
      "geometry": {
        "type": "Polygon",
        "coordinates": [[
          [-37.85, -8.76], [-35.78, -8.76], [-35.78, -10.48], [-37.85, -10.48], [-37.85, -8.76]
        ]]
      }
    },
    {
      "type": "Feature",
      "properties": {
        "nome": "Amapá",
        "sigla": "AP",
        "regiao": "Norte",
        "populacao": 861773
      },
      "geometry": {
        "type": "Polygon",
        "coordinates": [[
          [-54.80, 1.42], [-51.63, 1.42], [-51.63, -1.12], [-54.80, -1.12], [-54.80, 1.42]
        ]]
      }
    },
    {
      "type": "Feature",
      "properties": {
        "nome": "Amazonas",
        "sigla": "AM",
        "regiao": "Norte",
        "populacao": 4269795
      },
      "geometry": {
        "type": "Polygon",
        "coordinates": [[
          [-73.79, 2.81], [-56.52, 2.81], [-56.52, -9.82], [-73.79, -9.82], [-73.79, 2.81]
        ]]
      }
    },
    {
      "type": "Feature",
      "properties": {
        "nome": "Bahia",
        "sigla": "BA",
        "regiao": "Nordeste",
        "populacao": 14873064
      },
      "geometry": {
        "type": "Polygon",
        "coordinates": [[
          [-46.27, -9.39], [-37.25, -9.39], [-37.25, -18.34], [-46.27, -18.34], [-46.27, -9.39]
        ]]
      }
    },
    {
      "type": "Feature",
      "properties": {
        "nome": "Ceará",
        "sigla": "CE",
        "regiao": "Nordeste",
        "populacao": 9240580
      },
      "geometry": {
        "type": "Polygon",
        "coordinates": [[
          [-41.47, -2.79], [-37.27, -2.79], [-37.27, -7.92], [-41.47, -7.92], [-41.47, -2.79]
        ]]
      }
    },
    {
      "type": "Feature",
      "properties": {
        "nome": "Distrito Federal",
        "sigla": "DF",
        "regiao": "Centro-Oeste",
        "populacao": 3094325
      },
      "geometry": {
        "type": "Polygon",
        "coordinates": [[
          [-48.28, -15.50], [-47.42, -15.50], [-47.42, -15.87], [-48.28, -15.87], [-48.28, -15.50]
        ]]
      }
    },
    {
      "type": "Feature",
      "properties": {
        "nome": "Espírito Santo",
        "sigla": "ES",
        "regiao": "Sudeste",
        "populacao": 4108508
      },
      "geometry": {
        "type": "Polygon",
        "coordinates": [[
          [-40.50, -17.79], [-39.64, -17.79], [-39.64, -21.27], [-40.50, -21.27], [-40.50, -17.79]
        ]]
      }
    },
    {
      "type": "Feature",
      "properties": {
        "nome": "Goiás",
        "sigla": "GO",
        "regiao": "Centro-Oeste",
        "populacao": 7206589
      },
      "geometry": {
        "type": "Polygon",
        "coordinates": [[
          [-53.06, -13.00], [-46.04, -13.00], [-46.04, -19.50], [-53.06, -19.50], [-53.06, -13.00]
        ]]
      }
    },
    {
      "type": "Feature",
      "properties": {
        "nome": "Maranhão",
        "sigla": "MA",
        "regiao": "Nordeste",
        "populacao": 7114598
      },
      "geometry": {
        "type": "Polygon",
        "coordinates": [[
          [-45.88, -1.80], [-41.78, -1.80], [-41.78, -10.37], [-45.88, -10.37], [-45.88, -1.80]
        ]]
      }
    },
    {
      "type": "Feature",
      "properties": {
        "nome": "Mato Grosso",
        "sigla": "MT",
        "regiao": "Centro-Oeste",
        "populacao": 3658649
      },
      "geometry": {
        "type": "Polygon",
        "coordinates": [[
          [-60.67, -7.38], [-51.64, -7.38], [-51.64, -18.04], [-60.67, -18.04], [-60.67, -7.38]
        ]]
      }
    },
    {
      "type": "Feature",
      "properties": {
        "nome": "Mato Grosso do Sul",
        "sigla": "MS",
        "regiao": "Centro-Oeste",
        "populacao": 2839188
      },
      "geometry": {
        "type": "Polygon",
        "coordinates": [[
          [-56.52, -19.00], [-53.64, -19.00], [-53.64, -22.56], [-56.52, -22.56], [-56.52, -19.00]
        ]]
      }
    },
    {
      "type": "Feature",
      "properties": {
        "nome": "Minas Gerais",
        "sigla": "MG",
        "regiao": "Sudeste",
        "populacao": 21168791
      },
      "geometry": {
        "type": "Polygon",
        "coordinates": [[
          [-46.27, -14.92], [-39.52, -14.92], [-39.52, -22.91], [-46.27, -22.91], [-46.27, -14.92]
        ]]
      }
    },
    {
      "type": "Feature",
      "properties": {
        "nome": "Pará",
        "sigla": "PA",
        "regiao": "Norte",
        "populacao": 8690745
      },
      "geometry": {
        "type": "Polygon",
        "coordinates": [[
          [-56.52, 2.73], [-49.60, 2.73], [-49.60, -4.16], [-56.52, -4.16], [-56.52, 2.73]
        ]]
      }
    },
    {
      "type": "Feature",
      "properties": {
        "nome": "Paraíba",
        "sigla": "PB",
        "regiao": "Nordeste",
        "populacao": 4039277
      },
      "geometry": {
        "type": "Polygon",
        "coordinates": [[
          [-37.92, -6.88], [-34.79, -6.88], [-34.79, -8.31], [-37.92, -8.31], [-37.92, -6.88]
        ]]
      }
    },
    {
      "type": "Feature",
      "properties": {
        "nome": "Paraná",
        "sigla": "PR",
        "regiao": "Sul",
        "populacao": 11780561
      },
      "geometry": {
        "type": "Polygon",
        "coordinates": [[
          [-54.62, -22.50], [-48.08, -22.50], [-48.08, -27.36], [-54.62, -27.36], [-54.62, -22.50]
        ]]
      }
    },
    {
      "type": "Feature",
      "properties": {
        "nome": "Pernambuco",
        "sigla": "PE",
        "regiao": "Nordeste",
        "populacao": 9758185
      },
      "geometry": {
        "type": "Polygon",
        "coordinates": [[
          [-41.34, -7.30], [-34.83, -7.30], [-34.83, -9.48], [-41.34, -9.48], [-41.34, -7.30]
        ]]
      }
    },
    {
      "type": "Feature",
      "properties": {
        "nome": "Piauí",
        "sigla": "PI",
        "regiao": "Nordeste",
        "populacao": 3280174
      },
      "geometry": {
        "type": "Polygon",
        "coordinates": [[
          [-45.93, -2.73], [-41.78, -2.73], [-41.78, -10.91], [-45.93, -10.91], [-45.93, -2.73]
        ]]
      }
    },
    {
      "type": "Feature",
      "properties": {
        "nome": "Rio de Janeiro",
        "sigla": "RJ",
        "regiao": "Sudeste",
        "populacao": 17463349
      },
      "geometry": {
        "type": "Polygon",
        "coordinates": [[
          [-41.95, -20.76], [-40.51, -20.76], [-40.51, -28.34], [-41.95, -28.34], [-41.95, -20.76]
        ]]
      }
    },
    {
      "type": "Feature",
      "properties": {
        "nome": "Rio Grande do Norte",
        "sigla": "RN",
        "regiao": "Nordeste",
        "populacao": 3534265
      },
      "geometry": {
        "type": "Polygon",
        "coordinates": [[
          [-37.86, -4.82], [-34.97, -4.82], [-34.97, -6.99], [-37.86, -6.99], [-37.86, -4.82]
        ]]
      }
    },
    {
      "type": "Feature",
      "properties": {
        "nome": "Rio Grande do Sul",
        "sigla": "RS",
        "regiao": "Sul",
        "populacao": 11460767
      },
      "geometry": {
        "type": "Polygon",
        "coordinates": [[
          [-57.58, -27.05], [-49.69, -27.05], [-49.69, -33.77], [-57.58, -33.77], [-57.58, -27.05]
        ]]
      }
    },
    {
      "type": "Feature",
      "properties": {
        "nome": "Rondônia",
        "sigla": "RO",
        "regiao": "Norte",
        "populacao": 1815278
      },
      "geometry": {
        "type": "Polygon",
        "coordinates": [[
          [-66.82, -8.74], [-59.85, -8.74], [-59.85, -13.77], [-66.82, -13.77], [-66.82, -8.74]
        ]]
      }
    },
    {
      "type": "Feature",
      "properties": {
        "nome": "Roraima",
        "sigla": "RR",
        "regiao": "Norte",
        "populacao": 605761
      },
      "geometry": {
        "type": "Polygon",
        "coordinates": [[
          [-61.42, 2.20], [-56.49, 2.20], [-56.49, -3.90], [-61.42, -3.90], [-61.42, 2.20]
        ]]
      }
    },
    {
      "type": "Feature",
      "properties": {
        "nome": "Santa Catarina",
        "sigla": "SC",
        "regiao": "Sul",
        "populacao": 7252502
      },
      "geometry": {
        "type": "Polygon",
        "coordinates": [[
          [-53.83, -25.94], [-48.28, -25.94], [-48.28, -29.64], [-53.83, -29.64], [-53.83, -25.94]
        ]]
      }
    },
    {
      "type": "Feature",
      "properties": {
        "nome": "São Paulo",
        "sigla": "SP",
        "regiao": "Sudeste",
        "populacao": 46224079
      },
      "geometry": {
        "type": "Polygon",
        "coordinates": [[
          [-49.40, -19.78], [-44.16, -19.78], [-44.16, -25.31], [-49.40, -25.31], [-49.40, -19.78]
        ]]
      }
    },
    {
      "type": "Feature",
      "properties": {
        "nome": "Sergipe",
        "sigla": "SE",
        "regiao": "Nordeste",
        "populacao": 2318822
      },
      "geometry": {
        "type": "Polygon",
        "coordinates": [[
          [-37.69, -9.57], [-36.41, -9.57], [-36.41, -10.55], [-37.69, -10.55], [-37.69, -9.57]
        ]]
      }
    },
    {
      "type": "Feature",
      "properties": {
        "nome": "Tocantins",
        "sigla": "TO",
        "regiao": "Norte",
        "populacao": 1606348
      },
      "geometry": {
        "type": "Polygon",
        "coordinates": [[
          [-55.50, -4.99], [-48.26, -4.99], [-48.26, -10.20], [-55.50, -10.20], [-55.50, -4.99]
        ]]
      }
    }
  ]
}
